{"type": "FeatureCollection", "features": [ {"type": "Feature", "properties": {"norad_id": 52912, "name": "GAOFEN-12 03", "group": "resource", "lat": 81.14133822475712, "lon": -177.21547075132116, "alt_km": 622.0027215251457, "timestamp": "2025-12-23T22:42:32.635937+00:00", "meta": {"OBJECT_NAME": "GAOFEN-12 03", "OBJECT_ID": "2022-069A", "EPOCH": "2025-12-23T06:05:32.542368", "MEAN_MOTION": 14.79632896, "ECCENTRICITY": 0.00018795, "INCLINATION": 97.8482, "RA_OF_ASC_NODE": 244.3596, "ARG_OF_PERICENTER": 50.3816, "MEAN_ANOMALY": 309.7562, "EPHEMERIS_TYPE": 0, "CLASSIFICATION_TYPE": "U", "NORAD_CAT_ID": 52912, "ELEMENT_SET_NO": 999, "REV_AT_EPOCH": 18859, "BSTAR": 0.0001949698, "MEAN_MOTION_DOT": 1.411e-05, "MEAN_MOTION_DDOT": 0}, "tle": {"line1": "1 52912U 22069A   25357.25384887  .00001411  00000+0  19497-3 0  9994", "line2": "2 52912  97.8482 244.3596 0001879  50.3816 309.7562 14.79632896188598"}}, "geometry": {"type": "Point", "coordinates": [-177.21547075132116, 81.14133822475712]}}, {"type": "Feature", "properties": {"norad_id": 54754, "name": "SWOT", "group": "resource", "lat": 70.43376620622331, "lon": 53.6614283406556, "alt_km": 885.9679607408443, "timestamp": "2025-12-23T22:42:32.635947+00:00", "meta": {"OBJECT_NAME": "SWOT", "OBJECT_ID": "2022-173A", "EPOCH": "2025-12-23T05:03:33.541632", "MEAN_MOTION": 14.0016839, "ECCENTRICITY": 3.877e-05, "INCLINATION": 77.6109, "RA_OF_ASC_NODE": 272.8553, "ARG_OF_PERICENTER": 83.0944, "MEAN_ANOMALY": 277.0251, "EPHEMERIS_TYPE": 0, "CLASSIFICATION_TYPE": "U", "NORAD_CAT_ID": 54754, "ELEMENT_SET_NO": 999, "REV_AT_EPOCH": 15452, "BSTAR": 4.2264442e-05, "MEAN_MOTION_DOT": 6e-07, "MEAN_MOTION_DDOT": 0}, "tle": {"line1": "1 54754U 22173A   25357.21080488  .00000060  00000+0  42264-4 0  9990", "line2": "2 54754  77.6109 272.8553 0000387  83.0944 277.0251 14.00168390154528"}}, "geometry": {"type": "Point", "coordinates": [53.6614283406556, 70.43376620622331]}}, {"type": "Feature", "properties": {"norad_id": 57654, "name": "GAOFEN-12 04", "group": "resource", "lat": -76.75865582428587, "lon": 57.30115645768986, "alt_km": 638.3553847076373, "timestamp": "2025-12-23T22:42:32.635958+00:00", "meta": {"OBJECT_NAME": "GAOFEN-12 04", "OBJECT_ID": "2023-123A", "EPOCH": "2025-12-23T06:56:04.027200", "MEAN_MOTION": 14.79728993, "ECCENTRICITY": 0.00012105, "INCLINATION": 97.9128, "RA_OF_ASC_NODE": 272.8864, "ARG_OF_PERICENTER": 78.4133, "MEAN_ANOMALY": 281.7215, "EPHEMERIS_TYPE": 0, "CLASSIFICATION_TYPE": "U", "NORAD_CAT_ID": 57654, "ELEMENT_SET_NO": 999, "REV_AT_EPOCH": 12661, "BSTAR": 0.00017894605, "MEAN_MOTION_DOT": 1.293e-05, "MEAN_MOTION_DDOT": 0}, "tle": {"line1": "1 57654U 23123A   25357.28893550  .00001293  00000+0  17895-3 0  9997", "line2": "2 57654  97.9128 272.8864 0001210  78.4133 281.7215 14.79728993126613"}}, "geometry": {"type": "Point", "coordinates": [57.30115645768986, -76.75865582428587]}}, {"type": "Feature", "properties": {"norad_id": 59065, "name": "PARS 1", "group": "resource", "lat": -67.02516890459428, "lon": 131.10211873159233, "alt_km": 456.69574003813614, "timestamp": "2025-12-23T22:42:32.635968+00:00", "meta": {"OBJECT_NAME": "PARS 1", "OBJECT_ID": "2024-039Q", "EPOCH": "2025-12-23T07:36:41.355648", "MEAN_MOTION": 15.41204717, "ECCENTRICITY": 0.00117604, "INCLINATION": 97.4651, "RA_OF_ASC_NODE": 328.4758, "ARG_OF_PERICENTER": 39.9576, "MEAN_ANOMALY": 320.2534, "EPHEMERIS_TYPE": 0, "CLASSIFICATION_TYPE": "U", "NORAD_CAT_ID": 59065, "ELEMENT_SET_NO": 999, "REV_AT_EPOCH": 10151, "BSTAR": 0.00028992596, "MEAN_MOTION_DOT": 0.00011981, "MEAN_MOTION_DDOT": 0}, "tle": {"line1": "1 59065U 24039Q   25357.31714532  .00011981  00000+0  28993-3 0  9994", "line2": "2 59065  97.4651 328.4758 0011760  39.9576 320.2534 15.41204717101519"}}, "geometry": {"type": "Point", "coordinates": [131.10211873159233, -67.02516890459428]}}, {"type": "Feature", "properties": {"norad_id": 59371, "name": "RESURS-P 4", "group": "resource", "lat": 28.428494402641846, "lon": -59.90776806733858, "alt_km": 467.69230501802485, "timestamp": "2025-12-23T22:42:32.635978+00:00", "meta": {"OBJECT_NAME": "RESURS-P 4", "OBJECT_ID": "2024-061A", "EPOCH": "2025-12-23T06:54:36.212832", "MEAN_MOTION": 15.32164835, "ECCENTRICITY": 9.143e-05, "INCLINATION": 97.2564, "RA_OF_ASC_NODE": 303.4024, "ARG_OF_PERICENTER": 72.8028, "MEAN_ANOMALY": 287.3314, "EPHEMERIS_TYPE": 0, "CLASSIFICATION_TYPE": "U", "NORAD_CAT_ID": 59371, "ELEMENT_SET_NO": 999, "REV_AT_EPOCH": 9682, "BSTAR": 0.00013334927, "MEAN_MOTION_DOT": 4.065e-05, "MEAN_MOTION_DDOT": 0}, "tle": {"line1": "1 59371U 24061A   25357.28791913  .00004065  00000+0  13335-3 0  9992", "line2": "2 59371  97.2564 303.4024 0000914  72.8028 287.3314 15.32164835 96828"}}, "geometry": {"type": "Point", "coordinates": [-59.90776806733858, 28.428494402641846]}}, {"type": "Feature", "properties": {"norad_id": 59625, "name": "LEGION 1", "group": "resource", "lat": -14.102219131350534, "lon": 74.390960528884, "alt_km": 520.4566422160087, "timestamp": "2025-12-23T22:42:32.635988+00:00", "meta": {"OBJECT_NAME": "LEGION 1", "OBJECT_ID": "2024-081A", "EPOCH": "2025-12-23T05:21:10.839168", "MEAN_MOTION": 15.16577321, "ECCENTRICITY": 0.00036157, "INCLINATION": 97.52, "RA_OF_ASC_NODE": 71.7722, "ARG_OF_PERICENTER": 268.2773, "MEAN_ANOMALY": 91.8046, "EPHEMERIS_TYPE": 0, "CLASSIFICATION_TYPE": "U", "NORAD_CAT_ID": 59625, "ELEMENT_SET_NO": 999, "REV_AT_EPOCH": 9086, "BSTAR": 0.00029375086, "MEAN_MOTION_DOT": 5.669e-05, "MEAN_MOTION_DDOT": 0}, "tle": {"line1": "1 59625U 24081A   25357.22304212  .00005669  00000+0  29375-3 0  9994", "line2": "2 59625  97.5200  71.7722 0003615 268.2773  91.8046 15.16577321 90867"}}, "geometry": {"type": "Point", "coordinates": [74.390960528884, -14.102219131350534]}}, {"type": "Feature", "properties": {"norad_id": 59626, "name": "LEGION 2", "group": "resource", "lat": 13.686248118705114, "lon": -105.57944315151309, "alt_km": 516.5587959404429, "timestamp": "2025-12-23T22:42:32.635999+00:00", "meta": {"OBJECT_NAME": "LEGION 2", "OBJECT_ID": "2024-081B", "EPOCH": "2025-12-23T04:33:36.207360", "MEAN_MOTION": 15.16589691, "ECCENTRICITY": 0.00056886, "INCLINATION": 97.5202, "RA_OF_ASC_NODE": 71.8273, "ARG_OF_PERICENTER": 248.3098, "MEAN_ANOMALY": 111.7529, "EPHEMERIS_TYPE": 0, "CLASSIFICATION_TYPE": "U", "NORAD_CAT_ID": 59626, "ELEMENT_SET_NO": 999, "REV_AT_EPOCH": 9086, "BSTAR": 0.00025157412, "MEAN_MOTION_DOT": 4.847e-05, "MEAN_MOTION_DDOT": 0}, "tle": {"line1": "1 59626U 24081B   25357.19000240  .00004847  00000+0  25157-3 0  9996", "line2": "2 59626  97.5202  71.8273 0005688 248.3098 111.7529 15.16589691 90864"}}, "geometry": {"type": "Point", "coordinates": [-105.57944315151309, 13.686248118705114]}}, {"type": "Feature", "properties": {"norad_id": 60182, "name": "ALOS-4 (DAICHI-4)", "group": "resource", "lat": 49.0666559999906, "lon": -78.12693439832172, "alt_km": 625.7708071584693, "timestamp": "2025-12-23T22:42:32.636009+00:00", "meta": {"OBJECT_NAME": "ALOS-4 (DAICHI-4)", "OBJECT_ID": "2024-123A", "EPOCH": "2025-12-20T19:27:23.065632", "MEAN_MOTION": 14.79476706, "ECCENTRICITY": 0.00013885, "INCLINATION": 97.9224, "RA_OF_ASC_NODE": 89.5428, "ARG_OF_PERICENTER": 101.3368, "MEAN_ANOMALY": 258.8, "EPHEMERIS_TYPE": 0, "CLASSIFICATION_TYPE": "U", "NORAD_CAT_ID": 60182, "ELEMENT_SET_NO": 999, "REV_AT_EPOCH": 7950, "BSTAR": 0.00018386978, "MEAN_MOTION_DOT": 1.322e-05, "MEAN_MOTION_DDOT": 0}, "tle": {"line1": "1 60182U 24123A   25354.81068363  .00001322  00000+0  18387-3 0  9990", "line2": "2 60182  97.9224  89.5428 0001388 101.3368 258.8000 14.79476706 79505"}}, "geometry": {"type": "Point", "coordinates": [-78.12693439832172, 49.0666559999906]}}, {"type": "Feature", "properties": {"norad_id": 60452, "name": "LEGION 3", "group": "resource", "lat": -42.334778758743674, "lon": -175.68393277226556, "alt_km": 512.4456716759732, "timestamp": "2025-12-23T22:42:32.636019+00:00", "meta": {"OBJECT_NAME": "LEGION 3", "OBJECT_ID": "2024-146A", "EPOCH": "2025-12-23T04:02:50.500320", "MEAN_MOTION": 15.15861266, "ECCENTRICITY": 0.00157121, "INCLINATION": 45.0007, "RA_OF_ASC_NODE": 254.2217, "ARG_OF_PERICENTER": 254.3695, "MEAN_ANOMALY": 105.545, "EPHEMERIS_TYPE": 0, "CLASSIFICATION_TYPE": "U", "NORAD_CAT_ID": 60452, "ELEMENT_SET_NO": 999, "REV_AT_EPOCH": 7531, "BSTAR": 0.00025762834, "MEAN_MOTION_DOT": 4.763e-05, "MEAN_MOTION_DDOT": 0}, "tle": {"line1": "1 60452U 24146A   25357.16864005  .00004763  00000+0  25763-3 0  9991", "line2": "2 60452  45.0007 254.2217 0015712 254.3695 105.5450 15.15861266 75315"}}, "geometry": {"type": "Point", "coordinates": [-175.68393277226556, -42.334778758743674]}}, {"type": "Feature", "properties": {"norad_id": 60453, "name": "LEGION 4", "group": "resource", "lat": -42.64300927376233, "lon": -85.1381207217152, "alt_km": 521.3466037832604, "timestamp": "2025-12-23T22:42:32.636030+00:00", "meta": {"OBJECT_NAME": "LEGION 4", "OBJECT_ID": "2024-146B", "EPOCH": "2025-12-23T04:03:08.690112", "MEAN_MOTION": 15.15928413, "ECCENTRICITY": 0.00083719, "INCLINATION": 45.0392, "RA_OF_ASC_NODE": 346.0014, "ARG_OF_PERICENTER": 8.5092, "MEAN_ANOMALY": 351.5928, "EPHEMERIS_TYPE": 0, "CLASSIFICATION_TYPE": "U", "NORAD_CAT_ID": 60453, "ELEMENT_SET_NO": 999, "REV_AT_EPOCH": 7416, "BSTAR": 0.00032560716, "MEAN_MOTION_DOT": 6.092e-05, "MEAN_MOTION_DDOT": 0}, "tle": {"line1": "1 60453U 24146B   25357.16885058  .00006092  00000+0  32561-3 0  9994", "line2": "2 60453  45.0392 346.0014 0008371   8.5092 351.5928 15.15928413 74164"}}, "geometry": {"type": "Point", "coordinates": [-85.1381207217152, -42.64300927376233]}}]}